CCSDS_OMM_VERS = 2.0
CREATION_DATE  = 
ORIGINATOR     = 

OBJECT_NAME    = STARLINK-36404
OBJECT_ID      = 2026-022S
CENTER_NAME    = EARTH
REF_FRAME      = TEME
TIME_SYSTEM    = UTC
MEAN_ELEMENT_THEORY = SGP/SGP4

EPOCH          = 2026-02-15T12:00:01.999296
MEAN_MOTION    = 15.79687544
ECCENTRICITY   = .0001689
INCLINATION    = 97.2792
RA_OF_ASC_NODE = 79.4100
ARG_OF_PERICENTER = 89.3581
MEAN_ANOMALY   = 59.8807

EPHEMERIS_TYPE = 0
CLASSIFICATION_TYPE = U
NORAD_CAT_ID   = 67664
ELEMENT_SET_NO = 999
REV_AT_EPOCH   = 329
BSTAR          = -.113E-1
MEAN_MOTION_DOT = -.180914E-1
MEAN_MOTION_DDOT = 0

CCSDS_OMM_VERS = 2.0
CREATION_DATE  = 
ORIGINATOR     = 

OBJECT_NAME    = STARLINK-36399
OBJECT_ID      = 2026-022T
CENTER_NAME    = EARTH
REF_FRAME      = TEME
TIME_SYSTEM    = UTC
MEAN_ELEMENT_THEORY = SGP/SGP4

EPOCH          = 2026-02-15T12:00:01.999296
MEAN_MOTION    = 15.79570543
ECCENTRICITY   = .0001691
INCLINATION    = 97.2794
RA_OF_ASC_NODE = 79.4124
ARG_OF_PERICENTER = 90.5216
MEAN_ANOMALY   = 63.1637

EPHEMERIS_TYPE = 0
CLASSIFICATION_TYPE = U
NORAD_CAT_ID   = 67665
ELEMENT_SET_NO = 999
REV_AT_EPOCH   = 329
BSTAR          = -.11357E-1
MEAN_MOTION_DOT = -.1808525E-1
MEAN_MOTION_DDOT = 0

CCSDS_OMM_VERS = 2.0
CREATION_DATE  = 
ORIGINATOR     = 

OBJECT_NAME    = STARLINK-36365
OBJECT_ID      = 2026-022U
CENTER_NAME    = EARTH
REF_FRAME      = TEME
TIME_SYSTEM    = UTC
MEAN_ELEMENT_THEORY = SGP/SGP4

EPOCH          = 2026-02-15T12:00:01.999296
MEAN_MOTION    = 15.79795231
ECCENTRICITY   = .0001567
INCLINATION    = 97.2794
RA_OF_ASC_NODE = 79.4157
ARG_OF_PERICENTER = 111.7884
MEAN_ANOMALY   = 49.1700

EPHEMERIS_TYPE = 0
CLASSIFICATION_TYPE = U
NORAD_CAT_ID   = 67666
ELEMENT_SET_NO = 999
REV_AT_EPOCH   = 332
BSTAR          = -.11619E-1
MEAN_MOTION_DOT = -.1861641E-1
MEAN_MOTION_DDOT = 0

CCSDS_OMM_VERS = 2.0
CREATION_DATE  = 
ORIGINATOR     = 

OBJECT_NAME    = STARLINK-36622
OBJECT_ID      = 2026-022V
CENTER_NAME    = EARTH
REF_FRAME      = TEME
TIME_SYSTEM    = UTC
MEAN_ELEMENT_THEORY = SGP/SGP4

EPOCH          = 2026-02-15T12:00:01.999296
MEAN_MOTION    = 15.80303535
ECCENTRICITY   = .0001419
INCLINATION    = 97.2811
RA_OF_ASC_NODE = 79.4185
ARG_OF_PERICENTER = 105.8997
MEAN_ANOMALY   = 62.9513

EPHEMERIS_TYPE = 0
CLASSIFICATION_TYPE = U
NORAD_CAT_ID   = 67667
ELEMENT_SET_NO = 999
REV_AT_EPOCH   = 332
BSTAR          = -.11435E-1
MEAN_MOTION_DOT = -.1873517E-1
MEAN_MOTION_DDOT = 0

CCSDS_OMM_VERS = 2.0
CREATION_DATE  = 
ORIGINATOR     = 

OBJECT_NAME    = STARLINK-36625
OBJECT_ID      = 2026-022W
CENTER_NAME    = EARTH
REF_FRAME      = TEME
TIME_SYSTEM    = UTC
MEAN_ELEMENT_THEORY = SGP/SGP4

EPOCH          = 2026-02-15T12:00:01.999296
MEAN_MOTION    = 15.80240473
ECCENTRICITY   = .000174
INCLINATION    = 97.2809
RA_OF_ASC_NODE = 79.4219
ARG_OF_PERICENTER = 85.4493
MEAN_ANOMALY   = 91.6925

EPHEMERIS_TYPE = 0
CLASSIFICATION_TYPE = U
NORAD_CAT_ID   = 67668
ELEMENT_SET_NO = 999
REV_AT_EPOCH   = 332
BSTAR          = -.11493E-1
MEAN_MOTION_DOT = -.1877409E-1
MEAN_MOTION_DDOT = 0

CCSDS_OMM_VERS = 2.0
CREATION_DATE  = 
ORIGINATOR     = 

OBJECT_NAME    = STARLINK-36639
OBJECT_ID      = 2026-022X
CENTER_NAME    = EARTH
REF_FRAME      = TEME
TIME_SYSTEM    = UTC
MEAN_ELEMENT_THEORY = SGP/SGP4

EPOCH          = 2026-02-15T12:00:01.999296
MEAN_MOTION    = 15.80762381
ECCENTRICITY   = .0002031
INCLINATION    = 97.2789
RA_OF_ASC_NODE = 79.4255
ARG_OF_PERICENTER = 96.2694
MEAN_ANOMALY   = 88.9575

EPHEMERIS_TYPE = 0
CLASSIFICATION_TYPE = U
NORAD_CAT_ID   = 67669
ELEMENT_SET_NO = 999
REV_AT_EPOCH   = 332
BSTAR          = -.12147E-1
MEAN_MOTION_DOT = -.2011653E-1
MEAN_MOTION_DDOT = 0

CCSDS_OMM_VERS = 2.0
CREATION_DATE  = 
ORIGINATOR     = 

OBJECT_NAME    = STARLINK-36596
OBJECT_ID      = 2026-022Y
CENTER_NAME    = EARTH
REF_FRAME      = TEME
TIME_SYSTEM    = UTC
MEAN_ELEMENT_THEORY = SGP/SGP4

EPOCH          = 2026-02-15T12:00:01.999296
MEAN_MOTION    = 15.81201545
ECCENTRICITY   = .0001549
INCLINATION    = 97.2794
RA_OF_ASC_NODE = 79.4276
ARG_OF_PERICENTER = 104.9840
MEAN_ANOMALY   = 86.9218

EPHEMERIS_TYPE = 0
CLASSIFICATION_TYPE = U
NORAD_CAT_ID   = 67670
ELEMENT_SET_NO = 999
REV_AT_EPOCH   = 332
BSTAR          = -.97403E-2
MEAN_MOTION_DOT = -.1654323E-1
MEAN_MOTION_DDOT = 0

CCSDS_OMM_VERS = 2.0
CREATION_DATE  = 
ORIGINATOR     = 

OBJECT_NAME    = STARLINK-36297
OBJECT_ID      = 2026-022Z
CENTER_NAME    = EARTH
REF_FRAME      = TEME
TIME_SYSTEM    = UTC
MEAN_ELEMENT_THEORY = SGP/SGP4

EPOCH          = 2026-02-15T12:00:01.999296
MEAN_MOTION    = 15.81166251
ECCENTRICITY   = .0001642
INCLINATION    = 97.2794
RA_OF_ASC_NODE = 79.4322
ARG_OF_PERICENTER = 110.0485
MEAN_ANOMALY   = 93.0356

EPHEMERIS_TYPE = 0
CLASSIFICATION_TYPE = U
NORAD_CAT_ID   = 67671
ELEMENT_SET_NO = 999
REV_AT_EPOCH   = 332
BSTAR          = -.79572E-2
MEAN_MOTION_DOT = -.1356557E-1
MEAN_MOTION_DDOT = 0

CCSDS_OMM_VERS = 2.0
CREATION_DATE  = 
ORIGINATOR     = 

OBJECT_NAME    = STARLINK-36616
OBJECT_ID      = 2026-022AA
CENTER_NAME    = EARTH
REF_FRAME      = TEME
TIME_SYSTEM    = UTC
MEAN_ELEMENT_THEORY = SGP/SGP4

EPOCH          = 2026-02-15T12:00:01.999296
MEAN_MOTION    = 15.80906894
ECCENTRICITY   = .0001617
INCLINATION    = 97.2782
RA_OF_ASC_NODE = 79.4303
ARG_OF_PERICENTER = 59.1464
MEAN_ANOMALY   = 138.7709

EPHEMERIS_TYPE = 0
CLASSIFICATION_TYPE = U
NORAD_CAT_ID   = 67672
ELEMENT_SET_NO = 999
REV_AT_EPOCH   = 332
BSTAR          = -.10846E-1
MEAN_MOTION_DOT = -.1833225E-1
MEAN_MOTION_DDOT = 0

CCSDS_OMM_VERS = 2.0
CREATION_DATE  = 
ORIGINATOR     = 

OBJECT_NAME    = COSMOS 2600
OBJECT_ID      = 2026-023A
CENTER_NAME    = EARTH
REF_FRAME      = TEME
TIME_SYSTEM    = UTC
MEAN_ELEMENT_THEORY = SGP/SGP4

EPOCH          = 2026-02-15T11:07:04.654848
MEAN_MOTION    = 15.82398883
ECCENTRICITY   = .000169
INCLINATION    = 96.6492
RA_OF_ASC_NODE = 122.8017
ARG_OF_PERICENTER = 56.5913
MEAN_ANOMALY   = 303.5519

EPHEMERIS_TYPE = 0
CLASSIFICATION_TYPE = U
NORAD_CAT_ID   = 67674
ELEMENT_SET_NO = 999
REV_AT_EPOCH   = 153
BSTAR          = .3913E-3
MEAN_MOTION_DOT = .81222E-3
MEAN_MOTION_DDOT = 0

CCSDS_OMM_VERS = 2.0
CREATION_DATE  = 
ORIGINATOR     = 

OBJECT_NAME    = 2026-023B
OBJECT_ID      = 2026-023B
CENTER_NAME    = EARTH
REF_FRAME      = TEME
TIME_SYSTEM    = UTC
MEAN_ELEMENT_THEORY = SGP/SGP4

EPOCH          = 2026-02-15T12:11:56.057280
MEAN_MOTION    = 15.22423896
ECCENTRICITY   = .0017648
INCLINATION    = 96.6406
RA_OF_ASC_NODE = 122.0286
ARG_OF_PERICENTER = 209.6906
MEAN_ANOMALY   = 150.3333

EPHEMERIS_TYPE = 0
CLASSIFICATION_TYPE = U
NORAD_CAT_ID   = 67675
ELEMENT_SET_NO = 999
REV_AT_EPOCH   = 148
BSTAR          = .56848E-3
MEAN_MOTION_DOT = .1315E-3
MEAN_MOTION_DDOT = 0

CCSDS_OMM_VERS = 2.0
CREATION_DATE  = 
ORIGINATOR     = 

OBJECT_NAME    = 2026-023C
OBJECT_ID      = 2026-023C
CENTER_NAME    = EARTH
REF_FRAME      = TEME
TIME_SYSTEM    = UTC
MEAN_ELEMENT_THEORY = SGP/SGP4

EPOCH          = 2026-02-15T12:11:24.948096
MEAN_MOTION    = 15.22497034
ECCENTRICITY   = .0018859
INCLINATION    = 96.6442
RA_OF_ASC_NODE = 122.0418
ARG_OF_PERICENTER = 199.2618
MEAN_ANOMALY   = 160.7910

EPHEMERIS_TYPE = 0
CLASSIFICATION_TYPE = U
NORAD_CAT_ID   = 67676
ELEMENT_SET_NO = 999
REV_AT_EPOCH   = 164
BSTAR          = .62472E-3
MEAN_MOTION_DOT = .14499E-3
MEAN_MOTION_DDOT = 0

