STARLINK-36404          
1 67664U 26022S   26046.50002314 -.01809140  00000+0 -11300-1 0  9994
2 67664  97.2792  79.4100 0001689  89.3581  59.8807 15.79687544  3293
STARLINK-36399          
1 67665U 26022T   26046.50002314 -.01808525  00000+0 -11357-1 0  9993
2 67665  97.2794  79.4124 0001691  90.5216  63.1637 15.79570543  3293
STARLINK-36365          
1 67666U 26022U   26046.50002314 -.01861641  00000+0 -11619-1 0  9993
2 67666  97.2794  79.4157 0001567 111.7884  49.1700 15.79795231  3321
STARLINK-36622          
1 67667U 26022V   26046.50002314 -.01873517  00000+0 -11435-1 0  9995
2 67667  97.2811  79.4185 0001419 105.8997  62.9513 15.80303535  3327
STARLINK-36625          
1 67668U 26022W   26046.50002314 -.01877409  00000+0 -11493-1 0  9994
2 67668  97.2809  79.4219 0001740  85.4493  91.6925 15.80240473  3321
STARLINK-36639          
1 67669U 26022X   26046.50002314 -.02011653  00000+0 -12147-1 0  9994
2 67669  97.2789  79.4255 0002031  96.2694  88.9575 15.80762381  3323
STARLINK-36596          
1 67670U 26022Y   26046.50002314 -.01654323  00000+0 -97403-2 0  9991
2 67670  97.2794  79.4276 0001549 104.9840  86.9218 15.81201545  3320
STARLINK-36297          
1 67671U 26022Z   26046.50002314 -.01356557  00000+0 -79572-2 0  9997
2 67671  97.2794  79.4322 0001642 110.0485  93.0356 15.81166251  3326
STARLINK-36616          
1 67672U 26022AA  26046.50002314 -.01833225  00000+0 -10846-1 0  9998
2 67672  97.2782  79.4303 0001617  59.1464 138.7709 15.80906894  3328
COSMOS 2600             
1 67674U 26023A   26046.46324832  .00081222  00000+0  39130-3 0  9996
2 67674  96.6492 122.8017 0001690  56.5913 303.5519 15.82398883  1534
2026-023B               
1 67675U 26023B   26046.50828770  .00013150  00000+0  56848-3 0  9992
2 67675  96.6406 122.0286 0017648 209.6906 150.3333 15.22423896  1486
2026-023C               
1 67676U 26023C   26046.50792764  .00014499  00000+0  62472-3 0  9993
2 67676  96.6442 122.0418 0018859 199.2618 160.7910 15.22497034  1642
